OPS 3165 (DSP 5)        
1 08482U 75118A   26062.15933360  .00000040  00000+0  00000+0 0  9992
2 08482   2.5646 260.6554 0034881  25.1556 296.3579  1.00462294 25380
RADUGA 1                
1 08513U 75123A   26062.10291332 -.00000142  00000+0  00000+0 0  9998
2 08513   3.0763 268.2533 0004359 300.9064  68.0776  1.00248514193754
TITAN 3C TRANSTAGE R/B  
1 08516U 75118C   26061.14608998  .00000069  00000+0  00000+0 0  9995
2 08516   2.5445 260.9808 0011000 212.6291 146.7978  1.00550775 24705
CTS                     
1 08585U 76004A   26062.15378359 -.00000153  00000+0  00000+0 0  9998
2 08585   4.2035 273.5457 0011590 291.7520 274.6738  1.00202334121238
INTELSAT 4A-F2          
1 08620U 76010A   26061.73860797  .00000098  00000+0  00000+0 0  9997
2 08620   8.1264 304.6196 0006812 315.2380 205.9226  0.99686166619550
LES-8                   
1 08746U 76023A   26060.42686613 -.00000127  00000+0  00000+0 0  9992
2 08746  22.1989  38.4021 0032067 156.7396  14.4054  1.00269928128603
LES-9                   
1 08747U 76023B   26059.50717076 -.00000129  00000+0  00000+0 0  9990
2 08747  22.1587  38.4258 0023907 180.7887  18.2446  1.00276089128585
COMSTAR 1               
1 08838U 76042A   26062.01099007 -.00000253  00000+0  00000+0 0  9997
2 08838   8.1943 305.3679 0005821 356.2185 199.4110  0.99829924119517
TITAN 3C TRANSTAGE R/B  
1 08918U 76059C   26061.24628831  .00000106  00000+0  00000+0 0  9997
2 08918   3.0046 263.7087 0007977 274.3908  85.1041  1.00540588 24373
PALAPA 1                
1 09009U 76066A   26061.54088576 -.00000382  00000+0  00000+0 0  9993
2 09009   8.1156 305.7436 0002670 268.6112 261.9267  1.00092633126871
COMSTAR 2               
1 09047U 76073A   26062.10404001 -.00000132  00000+0  00000+0 0  9994
2 09047   8.1429 305.8484 0001758   6.4042 330.2995  0.99965643 46142
RADUGA 2                
1 09416U 76092A   26062.09987998  .00000000  00000+0  00000+0 0  9997
2 09416   3.7509 271.2095 0029835  36.9638 312.3296  1.00266410128270
KIKU-2 (ETS-II)         
1 09852U 77014A   26061.48146115  .00000062  00000+0  00000+0 0  9994
2 09852   5.5416 284.3285 0001491  45.0361 196.5781  1.00017386126151
TITAN 3C TRANSTAGE R/B  
1 09855U 77007C   26061.68788454  .00000080  00000+0  00000+0 0  9999
2 09855   3.6681 269.7128 0017368  44.2399 315.5804  1.00302778 24295
PALAPA 2                
1 09862U 77018A   26061.62825865 -.00000269  00000+0  00000+0 0  9991
2 09862   8.8709 310.9907 0002979  87.3307  86.1824  1.00029884142045
RADUGA 3                
1 10159U 77071A   26062.09537330  .00000127  00000+0  00000+0 0  9992
2 10159   4.3898 274.9441 0008677 305.4368  15.2146  1.00312173175974
SIRIO                   
1 10294U 77080A   26062.10239332 -.00000118  00000+0  00000+0 0  9996
2 10294   7.4603 299.9502 0005449 149.3300 184.1885  1.00271186116858
