[{"OBJECT_NAME":"OPS 3165 (DSP 5)","OBJECT_ID":"1975-118A","EPOCH":"2026-03-03T03:49:26.423040","MEAN_MOTION":1.00462294,"ECCENTRICITY":0.0034881,"INCLINATION":2.5646,"RA_OF_ASC_NODE":260.6554,"ARG_OF_PERICENTER":25.1556,"MEAN_ANOMALY":296.3579,"EPHEMERIS_TYPE":0,"CLASSIFICATION_TYPE":"U","NORAD_CAT_ID":8482,"ELEMENT_SET_NO":999,"REV_AT_EPOCH":2538,"BSTAR":0,"MEAN_MOTION_DOT":4.0e-7,"MEAN_MOTION_DDOT":0},{"OBJECT_NAME":"RADUGA 1","OBJECT_ID":"1975-123A","EPOCH":"2026-03-03T02:28:11.710848","MEAN_MOTION":1.00248514,"ECCENTRICITY":0.0004359,"INCLINATION":3.0763,"RA_OF_ASC_NODE":268.2533,"ARG_OF_PERICENTER":300.9064,"MEAN_ANOMALY":68.0776,"EPHEMERIS_TYPE":0,"CLASSIFICATION_TYPE":"U","NORAD_CAT_ID":8513,"ELEMENT_SET_NO":999,"REV_AT_EPOCH":19375,"BSTAR":0,"MEAN_MOTION_DOT":-1.42e-6,"MEAN_MOTION_DDOT":0},{"OBJECT_NAME":"TITAN 3C TRANSTAGE R/B","OBJECT_ID":"1975-118C","EPOCH":"2026-03-02T03:30:22.174272","MEAN_MOTION":1.00550775,"ECCENTRICITY":0.0011,"INCLINATION":2.5445,"RA_OF_ASC_NODE":260.9808,"ARG_OF_PERICENTER":212.6291,"MEAN_ANOMALY":146.7978,"EPHEMERIS_TYPE":0,"CLASSIFICATION_TYPE":"U","NORAD_CAT_ID":8516,"ELEMENT_SET_NO":999,"REV_AT_EPOCH":2470,"BSTAR":0,"MEAN_MOTION_DOT":6.9e-7,"MEAN_MOTION_DDOT":0},{"OBJECT_NAME":"CTS","OBJECT_ID":"1976-004A","EPOCH":"2026-03-03T03:41:26.902176","MEAN_MOTION":1.00202334,"ECCENTRICITY":0.001159,"INCLINATION":4.2035,"RA_OF_ASC_NODE":273.5457,"ARG_OF_PERICENTER":291.752,"MEAN_ANOMALY":274.6738,"EPHEMERIS_TYPE":0,"CLASSIFICATION_TYPE":"U","NORAD_CAT_ID":8585,"ELEMENT_SET_NO":999,"REV_AT_EPOCH":12123,"BSTAR":0,"MEAN_MOTION_DOT":-1.53e-6,"MEAN_MOTION_DDOT":0},{"OBJECT_NAME":"INTELSAT 4A-F2","OBJECT_ID":"1976-010A","EPOCH":"2026-03-02T17:43:35.728608","MEAN_MOTION":0.99686166,"ECCENTRICITY":0.00068127,"INCLINATION":8.1264,"RA_OF_ASC_NODE":304.6196,"ARG_OF_PERICENTER":315.238,"MEAN_ANOMALY":205.9226,"EPHEMERIS_TYPE":0,"CLASSIFICATION_TYPE":"U","NORAD_CAT_ID":8620,"ELEMENT_SET_NO":999,"REV_AT_EPOCH":61955,"BSTAR":0,"MEAN_MOTION_DOT":9.8e-7,"MEAN_MOTION_DDOT":0},{"OBJECT_NAME":"LES-8","OBJECT_ID":"1976-023A","EPOCH":"2026-03-01T10:14:41.233632","MEAN_MOTION":1.00269928,"ECCENTRICITY":0.00320677,"INCLINATION":22.1989,"RA_OF_ASC_NODE":38.4021,"ARG_OF_PERICENTER":156.7396,"MEAN_ANOMALY":14.4054,"EPHEMERIS_TYPE":0,"CLASSIFICATION_TYPE":"U","NORAD_CAT_ID":8746,"ELEMENT_SET_NO":999,"REV_AT_EPOCH":12860,"BSTAR":0,"MEAN_MOTION_DOT":-1.27e-6,"MEAN_MOTION_DDOT":0},{"OBJECT_NAME":"LES-9","OBJECT_ID":"1976-023B","EPOCH":"2026-02-28T12:10:19.553664","MEAN_MOTION":1.00276089,"ECCENTRICITY":0.00239074,"INCLINATION":22.1587,"RA_OF_ASC_NODE":38.4258,"ARG_OF_PERICENTER":180.7887,"MEAN_ANOMALY":18.2446,"EPHEMERIS_TYPE":0,"CLASSIFICATION_TYPE":"U","NORAD_CAT_ID":8747,"ELEMENT_SET_NO":999,"REV_AT_EPOCH":12858,"BSTAR":0,"MEAN_MOTION_DOT":-1.29e-6,"MEAN_MOTION_DDOT":0},{"OBJECT_NAME":"COMSTAR 1","OBJECT_ID":"1976-042A","EPOCH":"2026-03-03T00:15:49.542048","MEAN_MOTION":0.99829924,"ECCENTRICITY":0.0005821,"INCLINATION":8.1943,"RA_OF_ASC_NODE":305.3679,"ARG_OF_PERICENTER":356.2185,"MEAN_ANOMALY":199.411,"EPHEMERIS_TYPE":0,"CLASSIFICATION_TYPE":"U","NORAD_CAT_ID":8838,"ELEMENT_SET_NO":999,"REV_AT_EPOCH":11951,"BSTAR":0,"MEAN_MOTION_DOT":-2.53e-6,"MEAN_MOTION_DDOT":0},{"OBJECT_NAME":"TITAN 3C TRANSTAGE R/B","OBJECT_ID":"1976-059C","EPOCH":"2026-03-02T05:54:39.309984","MEAN_MOTION":1.00540588,"ECCENTRICITY":0.0007977,"INCLINATION":3.0046,"RA_OF_ASC_NODE":263.7087,"ARG_OF_PERICENTER":274.3908,"MEAN_ANOMALY":85.1041,"EPHEMERIS_TYPE":0,"CLASSIFICATION_TYPE":"U","NORAD_CAT_ID":8918,"ELEMENT_SET_NO":999,"REV_AT_EPOCH":2437,"BSTAR":0,"MEAN_MOTION_DOT":1.06e-6,"MEAN_MOTION_DDOT":0},{"OBJECT_NAME":"PALAPA 1","OBJECT_ID":"1976-066A","EPOCH":"2026-03-02T12:58:52.529664","MEAN_MOTION":1.00092633,"ECCENTRICITY":0.000267,"INCLINATION":8.1156,"RA_OF_ASC_NODE":305.7436,"ARG_OF_PERICENTER":268.6112,"MEAN_ANOMALY":261.9267,"EPHEMERIS_TYPE":0,"CLASSIFICATION_TYPE":"U","NORAD_CAT_ID":9009,"ELEMENT_SET_NO":999,"REV_AT_EPOCH":12687,"BSTAR":0,"MEAN_MOTION_DOT":-3.82e-6,"MEAN_MOTION_DDOT":0},{"OBJECT_NAME":"COMSTAR 2","OBJECT_ID":"1976-073A","EPOCH":"2026-03-03T02:29:49.056864","MEAN_MOTION":0.99965643,"ECCENTRICITY":0.0001758,"INCLINATION":8.1429,"RA_OF_ASC_NODE":305.8484,"ARG_OF_PERICENTER":6.4042,"MEAN_ANOMALY":330.2995,"EPHEMERIS_TYPE":0,"CLASSIFICATION_TYPE":"U","NORAD_CAT_ID":9047,"ELEMENT_SET_NO":999,"REV_AT_EPOCH":4614,"BSTAR":0,"MEAN_MOTION_DOT":-1.32e-6,"MEAN_MOTION_DDOT":0},{"OBJECT_NAME":"RADUGA 2","OBJECT_ID":"1976-092A","EPOCH":"2026-03-03T02:23:49.630272","MEAN_MOTION":1.0026641,"ECCENTRICITY":0.0029835,"INCLINATION":3.7509,"RA_OF_ASC_NODE":271.2095,"ARG_OF_PERICENTER":36.9638,"MEAN_ANOMALY":312.3296,"EPHEMERIS_TYPE":0,"CLASSIFICATION_TYPE":"U","NORAD_CAT_ID":9416,"ELEMENT_SET_NO":999,"REV_AT_EPOCH":12827,"BSTAR":0,"MEAN_MOTION_DOT":0,"MEAN_MOTION_DDOT":0},{"OBJECT_NAME":"KIKU-2 (ETS-II)","OBJECT_ID":"1977-014A","EPOCH":"2026-03-02T11:33:18.243360","MEAN_MOTION":1.00017386,"ECCENTRICITY":0.00014918,"INCLINATION":5.5416,"RA_OF_ASC_NODE":284.3285,"ARG_OF_PERICENTER":45.0361,"MEAN_ANOMALY":196.5781,"EPHEMERIS_TYPE":0,"CLASSIFICATION_TYPE":"U","NORAD_CAT_ID":9852,"ELEMENT_SET_NO":999,"REV_AT_EPOCH":12615,"BSTAR":0,"MEAN_MOTION_DOT":6.2e-7,"MEAN_MOTION_DDOT":0},{"OBJECT_NAME":"TITAN 3C TRANSTAGE R/B","OBJECT_ID":"1977-007C","EPOCH":"2026-03-02T16:30:33.224256","MEAN_MOTION":1.00302778,"ECCENTRICITY":0.0017368,"INCLINATION":3.6681,"RA_OF_ASC_NODE":269.7128,"ARG_OF_PERICENTER":44.2399,"MEAN_ANOMALY":315.5804,"EPHEMERIS_TYPE":0,"CLASSIFICATION_TYPE":"U","NORAD_CAT_ID":9855,"ELEMENT_SET_NO":999,"REV_AT_EPOCH":2429,"BSTAR":0,"MEAN_MOTION_DOT":8.0e-7,"MEAN_MOTION_DDOT":0},{"OBJECT_NAME":"PALAPA 2","OBJECT_ID":"1977-018A","EPOCH":"2026-03-02T15:04:41.547360","MEAN_MOTION":1.00029884,"ECCENTRICITY":0.0002979,"INCLINATION":8.8709,"RA_OF_ASC_NODE":310.9907,"ARG_OF_PERICENTER":87.3307,"MEAN_ANOMALY":86.1824,"EPHEMERIS_TYPE":0,"CLASSIFICATION_TYPE":"U","NORAD_CAT_ID":9862,"ELEMENT_SET_NO":999,"REV_AT_EPOCH":14204,"BSTAR":0,"MEAN_MOTION_DOT":-2.69e-6,"MEAN_MOTION_DDOT":0},{"OBJECT_NAME":"RADUGA 3","OBJECT_ID":"1977-071A","EPOCH":"2026-03-03T02:17:20.253120","MEAN_MOTION":1.00312173,"ECCENTRICITY":0.0008677,"INCLINATION":4.3898,"RA_OF_ASC_NODE":274.9441,"ARG_OF_PERICENTER":305.4368,"MEAN_ANOMALY":15.2146,"EPHEMERIS_TYPE":0,"CLASSIFICATION_TYPE":"U","NORAD_CAT_ID":10159,"ELEMENT_SET_NO":999,"REV_AT_EPOCH":17597,"BSTAR":0,"MEAN_MOTION_DOT":1.27e-6,"MEAN_MOTION_DDOT":0},{"OBJECT_NAME":"SIRIO","OBJECT_ID":"1977-080A","EPOCH":"2026-03-03T02:27:26.782848","MEAN_MOTION":1.00271186,"ECCENTRICITY":0.0005449,"INCLINATION":7.4603,"RA_OF_ASC_NODE":299.9502,"ARG_OF_PERICENTER":149.33,"MEAN_ANOMALY":184.1885,"EPHEMERIS_TYPE":0,"CLASSIFICATION_TYPE":"U","NORAD_CAT_ID":10294,"ELEMENT_SET_NO":999,"REV_AT_EPOCH":11685,"BSTAR":0,"MEAN_MOTION_DOT":-1.18e-6,"MEAN_MOTION_DDOT":0}]
